ONEWEB-0534             
1 55797U 23029B   23294.58334491  .00000013  00000+0  00000+0 0  9998
2 55797  87.9566 107.4980 0002268  78.7224 166.2686 13.34719663 33816
ONEWEB-0556             
1 55798U 23029C   23294.50001157  .00005644  00000+0  11347-1 0  9994
2 55798  87.9634 107.5138 0002190  39.4337 355.3341 13.33990708 33811
ONEWEB-0562             
1 55799U 23029D   23294.50001157  .00002630  00000+0  52662-2 0  9993
2 55799  87.9647 107.5033 0002787  73.4091 166.3499 13.34112308 33803
ONEWEB-0563             
1 55800U 23029E   23294.50001157  .00000014  00000+0  00000+0 0  9996
2 55800  87.9276 107.5258 0002286  62.4304  44.2381 13.37106504 33800
ONEWEB-0564             
1 55801U 23029F   23294.50001157 -.00152267  00000+0 -31161+0 0  9999
2 55801  87.9614 107.5011 0002572  61.4109 162.8827 13.34160994 33839
ONEWEB-0638             
1 55802U 23029G   23294.49999079  .00000056  00000+0  11747-3 0  9995
2 55802  87.8953 122.7765 0002404  77.3313 282.8086 13.14497317 32713
ONEWEB-0639             
1 55803U 23029H   23293.50113302  .00000004  00000+0 -22961-4 0  9999
2 55803  87.9197 138.1707 0002259  43.0461 317.0848 13.19728272 30878
ONEWEB-0640             
1 55804U 23029J   23293.89949472  .00000275  00000+0  70832-3 0  9995
2 55804  87.8929 122.9068 0002725  71.8332 288.3094 13.14507569 31947
